street1,street2,city,state,zipcode
804 Francis Ave,,Lindsay,Oklahoma,73052
3705 Killington Rd,,Killington,Vermont,05751
818 Commerce St,,Loudon,Tennessee,37774
200 Pirate Dr,,Crawford,Texas,76638
2397 Connecticut River Rd,,Springfield,Vermont,05156
1290 Main S,,Dickinson,North Dakota,58601
40449 S Shore Rd,,Huron,South Dakota,57350
2140 Rr 1,,Quinton,Oklahoma,74561
915 10th Ave N,,Glasgow,Montana,59230
5150 Red Bluff Rd,,Pasadena,Texas,77503
116 Division St,,Pawtucket,Rhode Island,02860
119 Dudley Hill Rd,,Suncook,New Hampshire,03275
20700 NE 142nd St,,Woodinville,Washington,98072
12 Moran Ranch Rd,,Rozet,Wyoming,82727
5560 S Hollow Rd,,Logan,Utah,84321
1603 Plainfield Pike,,Johnston,Rhode Island,02919
1201 10th Ave,,Vinton,Iowa,52349
1307 Mather St,,Green Bay,Wisconsin,54303
11616 Us 84 Hwy E,,Thomasville,Georgia,31757
680 Trents Mill Rd,,Cumberland,Virginia,23040
1210 Indian Dr,,Enid,Oklahoma,73703
429 N Saint Marys St,,Saint Marys,Pennsylvania,15857
3715 G Ave,,Kearney,Nebraska,68847
55 E 700th S #3,,Saint George,Utah,84770
131 Bentwood Rd,,Leesville,South Carolina,29070
724 Ludvig St,,Rock Springs,Wyoming,82901
6039 S Bay Rd,,Toledo,Oregon,97391
1639 Mayoworth Rd,,Kaycee,Wyoming,82639
279 Sunny Meadow Ct,,Afton,Wyoming,83110
45564 Durbin Rd,,Albany,Louisiana,70711
158 Rankin Ln,,Boston,Georgia,31626
14675 Avocado Ln,,Florissant,Missouri,63034
631 Lakedale Dr,,Clover,South Carolina,29710
59 Meadow St,,Rutland,Vermont,05701
142 W Granada Ave #APT B,,Hershey,Pennsylvania,17033
12 Beckside Rd,,North Providence,Rhode Island,02911
5001 Pacific Blvd SW #108,,Albany,Oregon,97321
2388 Smith Rd NE,,Puposky,Minnesota,56667
75 College Ave,,Greenville,Pennsylvania,16125
1320 N Mcqueen Rd,,Chandler,Arizona,85225
10335 Maddie Rd,,Dardanelle,Arkansas,72834
1613 American Way,,Fargo,North Dakota,58103
80 Oak Knoll Dr,,Elizabethtown,Pennsylvania,17022
502 S Union St,,Leland,Michigan,49654
406 S Molalla Ave,,Molalla,Oregon,97038
2415 SE Hacienda Ave,,Gresham,Oregon,97080
1200 Long Meadows Dr,,Lynchburg,Virginia,24502
186 Allen Brook Ln,,Williston,Vermont,05495
425 Depot St,,Scranton,Pennsylvania,18509
370 Susan Ct,,Ironton,Ohio,45638
86 Overledge Drive Ext,,Derry,New Hampshire,03038
49 Cedar Knoll Trl,,Hanover,Virginia,23069
720 Fort Washington Ave #APT 3U,,New York,New York,10040
58506 Little Creek Dr,,Coquille,Oregon,97423
1021 Heart Lake Rd,,Jermyn,Pennsylvania,18433
512 W Tennessee Ave,,Pauls Valley,Oklahoma,73075
319 S Baker St,,Four Oaks,North Carolina,27524
841 Lake Rd,,Hornbeak,Tennessee,38232
1 Alyssa Dr,,Derry,New Hampshire,03038
6 Kenyon St,,West Warwick,Rhode Island,02893
1873 Alabama Ave SW,,Birmingham,Alabama,35211
1316 Jefferson St,,Quincy,Illinois,62301
238 Courser Rd,,Enosburg Falls,Vermont,05450
9261 N Forward Rd,,Lake City,Michigan,49651
70 Summerhaven Rd,,Manchester,Maine,04351
113 Earle St,,Clemson,South Carolina,29631
8737 Deblanc Pl,,Manassas,Virginia,20110
7208 Nbu,,Prague,Oklahoma,74864
12048 Little Elk Rd,,Deadwood,South Dakota,57732
820 Canal St,,Pocatello,Idaho,83202
200 Market St #265,,Lebanon,Oregon,97355
730 Oconto Ave,,Peshtigo,Wisconsin,54157
3299 Saint John Church Rd,,Rineyville,Kentucky,40162
1510 E 71st St S,,Haysville,Kansas,67060
190 Hauoli St #APT 212,,Wailuku,Hawaii,96793
511 E Evans Ave,,Seminole,Oklahoma,74868
219 Prospect St,,Pawtucket,Rhode Island,02860
2460 174th Hwy,,Edisto Island,South Carolina,29438
641 Wildflower Dr,,Stayton,Oregon,97383
2401 E Lamar Blvd,,Arlington,Texas,76006
2613 Agate St,,Harrisburg,Pennsylvania,17110
9515 N Kalmar St,,Portland,Oregon,97203
86286 Northrup Creek Rd,,Clatskanie,Oregon,97016
28226 231st Pl SE,,Maple Valley,Washington,98038
7519 Smith Dr,,Sedro Woolley,Washington,98284
126 N Etta Dr,,Gold Canyon,Arizona,85118
116 E Letchworth St,,Rantoul,Illinois,61866
201 N Ellms St,,Wittenberg,Wisconsin,54499
1654 Sandy Bottom Rd,,Elkton,Virginia,22827
10632 Baker St,,Crown Point,Indiana,46307
4014 S 12th St,,Sheboygan,Wisconsin,53081
403 Orchard Ave,,Bridgeport,West Virginia,26330
210 Arrowhead Dr #A4,,Miles City,Montana,59301
1400 Colton Pl,,Pocatello,Idaho,83201
2011 River Reach Dr,,Naples,Florida,34104
968 N Macarthur Blvd,,Crescent,Oklahoma,73028
31968 Pea Ridge Rd,,Albany,Louisiana,70711
66 00 Li Expy #308,,Maspeth,New York,11378
2510 Rock Island Blvd,,Enid,Oklahoma,73701
2210 East 120 Rd,,Paxton,Nebraska,69155
927 E 12th St,,Newton,Kansas,67114
1314 Wren Rd,,Waterloo,Iowa,50701
3616 Liermann Ave,,Saint Louis,Missouri,63116
303 Aspen Ave,,Bismarck,North Dakota,58503
2187 71st St,,Van Horne,Iowa,52346
1311 Meadowlark Dr,,Scottsbluff,Nebraska,69361
124 Mountain Top Dr,,Park City,Utah,84060
1685 Rose Hill Rd,,Nauvoo,Alabama,35578
112 Cross Ridge Dr,,Leitchfield,Kentucky,42754
2819 Mcminnville Hwy,,Woodbury,Tennessee,37190
280 Red Bluff Church Rd,,Greensburg,Louisiana,70441
325 Dilday Rd,,Colerain,North Carolina,27967
9 Sy Lewis Mtn Rd,,Concord,Vermont,05824
2 E Main St,,Dundee,Illinois,60118
1130 E Lehman St,,Lebanon,Pennsylvania,17046
618 Martha Dr,,Franklin,Ohio,45005
37 Alice Dr,,Concord,New Hampshire,03303
462 N Washington St,,Pottstown,Pennsylvania,19464
31265 Norred Rd,,Holden,Louisiana,70744
1234 N Stevens St,,Thomasville,Georgia,31792
260 Washington Ave,,Cerulean,Kentucky,42215
438 S 5th St,,Hot Springs,South Dakota,57747
234 S Main St #APT 24,,Lumberton,Texas,77657
1925 Betts Bridge Rd,,West Pawlet,Vermont,05775
13563,,Denver,Colorado,80221
5627 Bangert Rd,,Quincy,Illinois,62305
1300 Blackwell Dairy Rd,,Jasper,Alabama,35504
24 Kingsbury Ln,,Frankfort,Maine,04438
335 Old Fort Sugar Hill Rd,,Old Fort,North Carolina,28762
411 I St SE,,Washington,District of Columbia,20003
122 E Park St,,Livingston,Montana,59047
416 Rittenhouse St NW,,Washington,District of Columbia,20011
4193 Whiting Dr SE,,Saint Petersburg,Florida,33705
15024 Estes Ln,,Graysville,Tennessee,37338
56 Shadeland Ave #2,,Drexel Hill,Pennsylvania,19026
8155 S Redwood Rd #85,,West Jordan,Utah,84088
120 Virginia Ave,,Chester,West Virginia,26034
145 Carlton Pl,,New Milford,New Jersey,07646
472 Dispanet Rd,,Mathias,West Virginia,26812
51 Front St,,Cumberland,Rhode Island,02864
8122 N Ridge Loop E,,Eagle Mountain,Utah,84005
1701 N 4th St,,Bismarck,North Dakota,58501
6405 101st St,,Ewa Beach,Hawaii,96706
15 Hawks Pl,,Bennington,Vermont,05201
531 6th St,,Alexandria,South Dakota,57311
5335 Meadows Rd #450,,Lake Oswego,Oregon,97035
845 W Center St,,Pocatello,Idaho,83204
203 Academy St #104,,Jersey City,New Jersey,07306
7141 W Elm Brook Dr,,Garden City,Idaho,83714
405 Park Dr,,Norway,Iowa,52318
3429 Estonia Dr,,Bowie,Maryland,20716
1610 Shady Plain Rd,,Apollo,Pennsylvania,15613
389 County 1350 Rd,,Chickasha,Oklahoma,73018
19 Maple St,,Hallowell,Maine,04347
102 N Allen St,,Catskill,New York,12414
320 An County Rd #2915,,Palestine,Texas,75803
533 S Boynton Ave,,El Reno,Oklahoma,73036
2406 Morado St,,Fort Myers,Florida,33901
1502 W Townline St,,Creston,Iowa,50801
5 Dakota Park,,Bottineau,North Dakota,58318
22250 Derrick Rd,,Pass Christian,Mississippi,39571
2332 Big Creek Rd,,Wayne,West Virginia,25570
9600 Pridesville Rd,,Amelia Court House,Virginia,23002
306 21st St S,,Fargo,North Dakota,58103
1919 Kyle Ln NW,,Mandan,North Dakota,58554
17301 Will Ct,,Accokeek,Maryland,20607
8227 Old Courthouse Rd #STE 201,,Vienna,Virginia,22182
45 Hannah Way,,Rockland,Massachusetts,02370
47-348 Mawaena St,,Kaneohe,Hawaii,96744
487 Travis,,Bullard,Texas,75757
1127 N 12th St,,Quincy,Illinois,62301
776 Cliffside Dr,,Fairborn,Ohio,45324
1186 Cook Ave,,Lakewood,Ohio,44107
1424 Woodland Dr,,Henderson,Kentucky,42420
2570 Apapane St,,Lihue,Hawaii,96766
2320 Crab Point Loop Rd,,Morehead City,North Carolina,28557
3 Oakwood Ln #APT 9,,Goffstown,New Hampshire,03045
547 North St,,New Haven,Vermont,05472
3389 Fleet Cove Rd,,Bradford,New York,14815
125 Pond Brook Rd,,Huntington,Massachusetts,01050
158 Rr 2,,Hydro,Oklahoma,73048
247 S Paradiso Ln,,Centerville,Utah,84014
715 Front St,,Pass Christian,Mississippi,39571
96 Crowell Rd,,Contoocook,New Hampshire,03229
115 Valley Meadow Dr,,Decatur,Texas,76234
1884 Horseshoe Ct,,De Pere,Wisconsin,54115
8892 Eagleview Dr #APT 7,,West Chester,Ohio,45069
9 Rock Crest Dr,,Signal Mountain,Tennessee,37377
1522 Stokes Elementary School Rd,,Stokes,North Carolina,27884
44891 Saltmarsh Ct,,Lexington Park,Maryland,20653
110 State St,,Montpelier,Vermont,05602
398 Preston Dr,,Kinston,North Carolina,28504
502 1st Ave,,Jessup,Pennsylvania,18434
145 Walnut Hill Dr,,Westminster,South Carolina,29693
4529 S Grand Blvd,,Saint Louis,Missouri,63111
3750 Bunty Station Rd,,Delaware,Ohio,43015
318 State 85 Rte E,,Centertown,Kentucky,42328
1134 Cedar Ln,,Pocatello,Idaho,83204
1464 Hammond Rd,,Palmyra,New York,14522
1474 Burkholder Rd,,Red Lion,Pennsylvania,17356
44 Timbercliffe Dr,,Camden,Maine,04843
23597 S 223rd Way,,Queen Creek,Arizona,85142
28487 207th St,,Fort Pierre,South Dakota,57532
23365 Polaris Rd NW,,Puposky,Minnesota,56667
621 70th Hwy,,Ruidoso,New Mexico,88345
19 Johnson Dr,,Dickinson,North Dakota,58601
602 Firetower Rd,,Bamberg,South Carolina,29003
1749 Prospect Rd,,Nauvoo,Alabama,35578
320 Bent Nail Rd,,Hillsville,Virginia,24343
7100 W 13th Ave,,Denver,Colorado,80214
816 N Garfield Ave,,Pocatello,Idaho,83204
1117 Luan Way,,Kemp,Texas,75143
162 Johnson Frk,,Sod,West Virginia,25564
98 Homewood Ave,,North Providence,Rhode Island,02911
1232 Columbia Dr NE,,Albuquerque,New Mexico,87106
5601 Mile Rd,,Wabeno,Wisconsin,54566
131 S Orchard Dr,,North Salt Lake,Utah,84054
328 Martin Ln,,Cottontown,Tennessee,37048
20202 Star School House Rd,,Dexter,New York,13601
6013 Jordan Rd,,Perkinston,Mississippi,39573
138 Hicks Rd,,Castle Rock,Washington,98611
2962 Quarters,,Quantico,Virginia,22134
898 Monroe St,,Ketchikan,Alaska,99901
865 Luray Hwy,,Hampton,South Carolina,29924
502 Magnolia Pky,,Waterloo,Iowa,50701
323 S 2nd St,,Livingston,Montana,59047
1105 23rd Ave S,,Moorhead,Minnesota,56560
32 Contentment Ln,,South Hero,Vermont,05486
43 Scott Ter,,Ludlow,Vermont,05149
117 Broomsage Cir,,Unionville,Tennessee,37180
24795 Shoreline Dr,,Millsboro,Delaware,19966
800 Quinnesec St,,Florence,Wisconsin,54121
120 Muldoon Pl,,Jackson,California,95642
15119 Lake Ave,,Lakewood,Ohio,44107
2701 Ozark Ave,,Mena,Arkansas,71953
2 Horizon Rd #APT 406,,Fort Lee,New Jersey,07024
300 Smith St,,Johnston,South Carolina,29832
2324 Virginia Rd,,Edenton,North Carolina,27932
2264 W 1025th N,,Ogden,Utah,84404
1700 N Tully Rd #A150,,Turlock,California,95380
44 Atlantic Ave,,West Warwick,Rhode Island,02893
232 Ruhe Ln,,Box Elder,South Dakota,57719
208 Northwind Dr,,Goodlettsville,Tennessee,37072
1515 Hough St,,Fort Myers,Florida,33901
155 E 31st St,,New York,New York,10016
113 S L St,,Livingston,Montana,59047
1924 17th St SE,,Washington,District of Columbia,20020
384 Colonial Crest Dr,,Lancaster,Pennsylvania,17601
200 Palm Blvd,,Isle Of Palms,South Carolina,29451
224 Two Forts Rd,,Moncks Corner,South Carolina,29461
623287 Hulukupuna St,,Kamuela,Hawaii,96743
761 Fairway Dr,,Boulder City,Nevada,89005
47 Longfellow Rd,,Jamestown,Rhode Island,02835
4 Ash St,,Derry,New Hampshire,03038
1076 Rush Meadow Rd,,Reading,Vermont,05062
1361 N 1500th W,,Farmington,Utah,84025
334 Jake Martin Rd,,Marshfield,Vermont,05658
933 Smithfield Ave,,Lincoln,Rhode Island,02865
410 E Hobson St,,Searchlight,Nevada,89046
805 Hill Ct #104,,Granbury,Texas,76048
2 E State St,,Sherburne,New York,13460
929 Main St,,Centertown,Kentucky,42328
4901 W Victoria Dr #10,,Sioux Falls,South Dakota,57106
350 Linden St,,Brattleboro,Vermont,05301
5347 E Mockingbird Ln,,Paradise Valley,Arizona,85253
410 E 57,,New York,New York,10001
33 Burke Rd,,Orwell,Vermont,05760
1024 Andis Rd,,Burlington,Washington,98233
47 417th Rd #APT B B,,Kaneohe,Hawaii,96744
20275 Hastings Rd,,Frankford,Delaware,19945
1502 Industrial Rd,,Boulder City,Nevada,89005
720 Northern Blvd,,Greenvale,New York,11548
825 9th St,,Secaucus,New Jersey,07094
410 Highland Springs Rd,,Rutledge,Tennessee,37861
202 S 800th N,,Goodland,Indiana,47948
812 6th St,,Monroe,Wisconsin,53566
1366 Rickman Rd,,Livingston,Tennessee,38570
102 Windsor Ln #L,,Williamsburg,Virginia,23185
31435 473rd Ave,,Elk Point,South Dakota,57025
61 Tennyson Ct S,,Rineyville,Kentucky,40162
611 Mcgovern Ave,,Cheyenne,Wyoming,82001
10 Chestnut Cir,,Loudon,New Hampshire,03307
64 Roberts St,,Johnson City,New York,13790
1028 Abbott Blvd,,Fort Lee,New Jersey,07024
1119 Kent Cir,,Waterloo,Iowa,50701
1836 W 12050th S,,Riverton,Utah,84065
4949 E Orange Rd,,West Topsham,Vermont,05086
2441 SE 23rd St,,Cross City,Florida,32628
46333 266th St,,Hartford,South Dakota,57033
6 Timber Ln,,Westport,Connecticut,06880
11 Valley Dr,,Ashaway,Rhode Island,02804
307 E Madison Ave,,Dumont,New Jersey,07628
121 E Court Dr,,Chesnee,South Carolina,29323
836 Sheridan Ave,,Cody,Wyoming,82414
1212 W 8th St,,Yankton,South Dakota,57078
12 Dean Ave,,Newport,Rhode Island,02840
3434 Wepax Rd,,Eden,New York,14057
1725 Pled Wade Rd,,Puryear,Tennessee,38251
1010 Jones Rd,,Evansdale,Iowa,50707
214,,Weslaco,Texas,78596
2900 Grand Ave #22,,Kearney,Nebraska,68847
1104 W Harry St,,Andover,Kansas,67002
225 N 3800th E,,Rigby,Idaho,83442
2516 Halsel St,,Gulfport,Mississippi,39503
14508 Clifton Blvd,,Lakewood,Ohio,44107
135 N Irving St,,Coquille,Oregon,97423
2516 Lime Kiln Rd,,New Haven,Vermont,05472
8908 E 109th Ave,,Crown Point,Indiana,46307
25320 Lake Fenwick Rd,,Kent,Washington,98032
140 W 117th St #1C,,New York,New York,10026
1065 W 950th N,,Layton,Utah,84041
626 Phillips Hill Rd,,Coventry,Rhode Island,02816
7629,,Colfax,Wisconsin,54730
16161 Cormorant Rd,,Lake Park,Minnesota,56554
865 Weems Chapel Rd,,Mosheim,Tennessee,37818
3419 M Ave,,Kearney,Nebraska,68847
888 Blaney Blizzard Rd,,Deep Run,North Carolina,28525
1025 School Ave,,Walla Walla,Washington,99362
3166 500th W,,Vernal,Utah,84078
471 Barnumville Rd,,Manchester Center,Vermont,05255
24437 Hall Rd,,Cheshire,Oregon,97419
412 Main St,,Roaring Spring,Pennsylvania,16673
1409 Lakeland Dr,,Conway,South Carolina,29526
206 E King Ave,,Gettysburg,South Dakota,57442
16 Avenida Del Sol,,Cedar Crest,New Mexico,87008
304 Raylildo Ln,,Greensburg,Louisiana,70441
450 Rr 2,,Parsons,West Virginia,26287
165 9th St,,Wellsburg,West Virginia,26070
620 Saddle Dr,,Salem,South Carolina,29676
604 White Mountain Dr #606,,Ruidoso,New Mexico,88345
2410 Sharpes Hill Rd,,Gaston,South Carolina,29053
7090 N Wilde Rd,,Concrete,Washington,98237
80 Shoemaker St,,Kingston,Pennsylvania,18704
14977 County Rd #443,,Somerville,Texas,77879
67-1226 Halalena Pl,,Kamuela,Hawaii,96743
3945 Misty Dr,,West Jordan,Utah,84084
1421 44th St NW,,Washington,District of Columbia,20007
104 Lockerman Rd,,Ochlocknee,Georgia,31773
44-6 Hako St,,Kaneohe,Hawaii,96744
1 A Ave,,New York,New York,10009
42362 26th Ave,,Seaside,Oregon,97138
817 W Olive St,,Rogers,Arkansas,72756
714 Woodlands Cir,,Crossville,Tennessee,38571
175 Hospital Dr,,Camden,Tennessee,38320
1220 E 5th St,,Ketchikan,Alaska,99901
1849 Green Bay Rd #310,,Highland Park,Illinois,60035
18706 NE 116th Ave,,Battle Ground,Washington,98604
73 Highland Dr,,Lake Leelanau,Michigan,49653
1811 Warwick Ave #36W,,Warwick,Rhode Island,02889
5514 103rd St,,Lubbock,Texas,79424
211 Emerald Dr,,Scarborough,Maine,04074
531 S 38th Ave,,West Richland,Washington,99353
52 Dixon Ln,,Greensburg,Louisiana,70441
542 E Daley Ave,,Layton,Utah,84041
1121 Everglade Dr,,Cheyenne,Wyoming,82001
1084 Cayuga Trl SW,,Hartville,Ohio,44632
517 32nd Ave S #APT 6,,Moorhead,Minnesota,56560
842 S Lake Dr,,Lancaster,South Carolina,29720
212 Norman Dr,,Coraopolis,Pennsylvania,15108
204 W Radison Run,,Clayton,Delaware,19938
3200 Southridge Ln,,Bismarck,North Dakota,58504
1250 New York Ave NW,,Washington,District of Columbia,20005
1216 Parmer Dr,,Florissant,Missouri,63031
805 S Elm St,,Kimball,Nebraska,69145
80 Wineberry Ct,,Elizabethtown,Pennsylvania,17022
349 800th E #GENOLA,,Santaquin,Utah,84655
4734 Us Hwy #26/85,,Torrington,Wyoming,82240
86 Orient Ave,,Jamestown,Rhode Island,02835
131 Elliot St #APT 2,,Brattleboro,Vermont,05301
19 Ridgewood Dr,,Bow,New Hampshire,03304
503 N Elm St,,Marlow,Oklahoma,73055
359 Springhouse Ln,,Hockessin,Delaware,19707
245 N 10th Ave,,Pocatello,Idaho,83201
294 Ray St,,Roanoke,Virginia,24019
10065 Illinois St,,Bonita Springs,Florida,34135
11820 Edgewater Dr,,Lakewood,Ohio,44107
909 Texas Ave S,,Bryan,Texas,77803
2905 Dover Dr,,Laramie,Wyoming,82072
602 E 6th St,,Gillette,Wyoming,82716
54 Summer St,,Northfield,Vermont,05663
46126 Sd 38 Hwy,,Hartford,South Dakota,57033
527 Broadway St,,Quincy,Illinois,62301
74 High Rock Rd,,Hamden,Connecticut,06514
135 Atlantic Ave Rehoboth Bch,,Rehoboth Beach,Delaware,19971
245 S 80th E,,Midway,Utah,84049
4002 Mahinahina St,,Lahaina,Hawaii,96761
5490 White Post Rd,,Bettendorf,Iowa,52722
12009 Glengrove Dr,,Maryland Heights,Missouri,63043
305 N West St ## 12,,Flandreau,South Dakota,57028
10347 County Rd #408,,Normangee,Texas,77871
40 Tryon Ave,,Rumford,Rhode Island,02916
39 Ellsworth Hill Rd,,Campton,New Hampshire,03223
625 W Dickson St,,Fayetteville,Arkansas,72701
127 N Pine St,,Newton,Kansas,67114
35303 Royalton Rd,,Grafton,Ohio,44044
528 Sheridan St NW,,Washington,District of Columbia,20011
3472 Dry Gulch Dr,,Laughlin,Nevada,89029
309 Bree Dr,,Winston,Oregon,97496
3102 Dewar Dr,,Rock Springs,Wyoming,82901
204 Parry Rd,,Warminster,Pennsylvania,18974
1011 N Orient St,,Fairmont,Minnesota,56031
7512 Jarnecke Ave,,Hammond,Indiana,46324
100 Marys Ct,,Ochlocknee,Georgia,31773
201 Williams Blvd NW #BL,,Orting,Washington,98360
2736 Old County Rd,,Saint Johnsbury,Vermont,05819
4609 Country Club Rd #K3,,Morehead City,North Carolina,28557
33 River Rd,,Suncook,New Hampshire,03275
6612 Hale Ct,,Diamondhead,Mississippi,39525
5191 Borch St,,Ketchikan,Alaska,99901
328 Hill St,,Waynesboro,Tennessee,38485
9471 W State Rd #67,,Sharon,Wisconsin,53585
259 Us 89 Hwy N,,Livingston,Montana,59047
193 Paddock Loop,,Caddo,Oklahoma,74729
11300 N Valley Dr #18W,,Thiensville,Wisconsin,53092
11205 Cottageville Hwy,,Cottageville,South Carolina,29435
404 Rr 2,,Crescent,Oklahoma,73028
5883 Willow Grove Hwy,,Allons,Tennessee,38541
940 E 1000th S,,Springville,Utah,84663
5115 Merritt Rd,,Rapid City,South Dakota,57702
475 E 500th N,,Spanish Fork,Utah,84660
3025 Swinging Bridge Ln,,Hedgesville,West Virginia,25427
16 Brown Teal Rd,,Petersburg,Tennessee,37144
1551 N Leverett Ave,,Fayetteville,Arkansas,72703
118 Victoria Ln,,Piketon,Ohio,45661
3575 Airline Rd,,Pavo,Georgia,31778
5 W Cohawkin Rd,,Clarksboro,New Jersey,08020
235 S Jane,,Haysville,Kansas,67060
8902 Old Palmer Rd,,Fort Washington,Maryland,20744
1036 E 1050th S,,Spanish Fork,Utah,84660
28580 Hutchinson Cemetary Rd,,Albany,Louisiana,70711
1655 Irish Hill Dr,,Biloxi,Mississippi,39530
301 Munson Ave,,Mc Kees Rocks,Pennsylvania,15136
8395 Treasure Rocks Rd,,Nehalem,Oregon,97131
5944 Main St,,Sylvania,Ohio,43560
1321 4th Ave,,Huntington,West Virginia,25701
551 One Oak Ln,,Bowman,South Carolina,29018
130 General Nelson Dr,,Richmond,Kentucky,40475
1423 Farmcrest Way,,Silver Spring,Maryland,20905
2077-1 2 Broadway St,,Quincy,Illinois,62301
6102 Madison Creek Rd,,Salt Rock,West Virginia,25559
11 Meadow View Ct,,Edgewood,New Mexico,87015
55 Main St,,Winterport,Maine,04496
19 Morning Mist Dr,,North Haven,Connecticut,06473
1307 S Elizabeth,,Wichita,Kansas,67213
4076 Vt Rte #15,,Wolcott,Vermont,05680
3856 450th Ln,,Hay Springs,Nebraska,69347
35862 Army Navy Dr,,Mechanicsville,Maryland,20659
1985 Ransom Ct,,Murfreesboro,Tennessee,37130
1064 Zion Hill Rd,,Keswick,Virginia,22947
5817 Mooresville Rd,,Kannapolis,North Carolina,28081
1255 New Hampshire Ave NW,,Washington,District of Columbia,20036
515 Wilson St,,Clarksburg,West Virginia,26301
4915 Skyline Dr,,Cedar,Michigan,49621
604 Pixley St,,Danville,Illinois,61832
1125 Lochness Way,,Parrottsville,Tennessee,37843
48 Douglas Cir,,Greenville,Rhode Island,02828
370 Rr 2,,Stilwell,Oklahoma,74960
116 Plain Rd,,North Kingstown,Rhode Island,02852
48 East St,,West Warwick,Rhode Island,02893
3000 Ladnier Rd,,Gautier,Mississippi,39553
108 Lakeview Dr,,Thomasville,Georgia,31792
200 Upland Dr,,Hampton,Virginia,23666
4301 La Vale Ct,,Clemmons,North Carolina,27012
1820 E Ave,,Kearney,Nebraska,68847
1601 American Way S,,Fargo,North Dakota,58103
637 Kern St,,Waterloo,Iowa,50703
7807 Gale Rd SW,,Hebron,Ohio,43025
73 N Vista Valle Dr,,Tijeras,New Mexico,87059
750 Nautilus St,,La Jolla,California,92037
2204 River Dr NE,,Mandan,North Dakota,58554
20502 NE 22nd Ave #A,,Ridgefield,Washington,98642
12 Ashton St,,Charleston,South Carolina,29403
25 Valley Rd,,Southampton,Massachusetts,01073
708 S Raleigh St,,Martinsburg,West Virginia,25401
11515 1st St #27,,Sturtevant,Wisconsin,53177
3189 E Mullett Lake Rd,,Indian River,Michigan,49749
12349 Lakepoint Dr,,Maryland Heights,Missouri,63043
121 S Shepard Ave,,El Reno,Oklahoma,73036
90 Hoey Rd,,Cavendish,Vermont,05142
1252 Wyoming St,,Boulder City,Nevada,89005
83 Beech Hill Dr,,Newark,Delaware,19711
10070 Lakeshore Loop,,Dardanelle,Arkansas,72834
135 W Main St,,Mount Sterling,Illinois,62353
706 Aztec Pl,,Boulder City,Nevada,89005
1200 Irwinton Ave,,Helena,Georgia,31037
5 Basalt Cir,,Santa Clara,Utah,84765
1215 Evatt Rd,,Seneca,South Carolina,29672
765 S Grandview Dr,,Paoli,Indiana,47454
223 E 82nd St,,New York,New York,10028
2977 E Sierrita Rd,,San Tan Valley,Arizona,85143
2943 Nc 35 Hwy,,Woodland,North Carolina,27897
161 Austin Dr #16,,Burlington,Vermont,05401
167 Hudson St,,Hudson,Ohio,44236
19622 Hilldale Ln,,Spiro,Oklahoma,74959
14846 Radar Hills Dr,,Box Elder,South Dakota,57703
125 Monte Vista Dr,,Kingsport,Tennessee,37660
2644 Addy Gifford Rd,,Addy,Washington,99101
27555 Sd 11 Hwy,,Harrisburg,South Dakota,57032
230 Whites Landing Rd,,Edenton,North Carolina,27932
1708 Rocky Hock Landing Rd,,Edenton,North Carolina,27932
20801 Jake Smith Rd,,Spiro,Oklahoma,74959
1331 27th St,,Cameron,Wisconsin,54822
3388 5th Ave,,Saint James City,Florida,33956
126 W Fairfax Rd,,Hoyt Lakes,Minnesota,55750
6595 Paradise Rd,,Milton,Pennsylvania,17847
169 Cheyenne St,,Zavalla,Texas,75980
215 Reichelt Rd #C,,New Milford,New Jersey,07646
13534 SE Snowfire Dr,,Happy Valley,Oregon,97086
55-104 Naupaka St,,Laie,Hawaii,96762
3011 Lovejoy Dr,,Cedar Falls,Iowa,50613
11863 Magnolia Dr,,Nederland,Colorado,80466
2815 Parker Rd,,Boston,Georgia,31626
2012 Lakeland Ave #3,,Lakewood,Ohio,44107
1191 Clark St,,East Helena,Montana,59635
263 Lower Brule Housing #LOWER,,Lower Brule,South Dakota,57548
134 Sheridan Park,,Geneva,New York,14456
1321 Florea St,,Graham,Texas,76450
1079 Crane Ct,,Kingston Springs,Tennessee,37082
10574 State Hwy #337,,Tijeras,New Mexico,87059
1039 Brenda Ln,,Grove,Oklahoma,74344
1209 Saint Charles Ave,,Lakewood,Ohio,44107
246 S Main St #3,,Woonsocket,Rhode Island,02895
6253 W Gilbert Industrial Ct,,Hurricane,Utah,84737
110 Shorewood Dr,,International Falls,Minnesota,56649
1814 E Hester St,,Brownfield,Texas,79316
22557 Sulphur Springs Rd,,Waggoner,Illinois,62572
213 Valleyview Rd,,Zillah,Washington,98953
11 Tiffany Cir,,Barrington,Rhode Island,02806
48 Sheldon St,,West Warwick,Rhode Island,02893
389 Seal Ave,,Pass Christian,Mississippi,39571
558 N Main St,,Prineville,Oregon,97754
111 George St #APT 1,,Johnston,Rhode Island,02919
594 Stanton Blvd,,Ontario,Oregon,97914
118 Malio Rd #UNT 103,,Wahiawa,Hawaii,96786
36101 Seaside Blvd,,Rehoboth Beach,Delaware,19971
405 Three Rivers Rd,,Forks,Washington,98331
283 Island Ave,,Ramsey,New Jersey,07446
534 S 180th W,,Hurricane,Utah,84737
4309 Fairmont Rd,,Morgantown,West Virginia,26501
12015 State 56 Hwy,,Wewoka,Oklahoma,74884
520 S Monroe St,,Kimball,Nebraska,69145
2516 Island View Ln,,Lummi Island,Washington,98262
301 7th St,,Jersey City,New Jersey,07302
4704 Ashbury Ln,,Mansfield,Texas,76063
2404 State 289 Hwy,,Sherman,Texas,75092
670 N Woodruff Ave,,Idaho Falls,Idaho,83401
2 Flintlock Ridge Rd,,Westport,Connecticut,06880
8606 NE 10th St,,Medina,Washington,98039
230 Howard Ave,,Waynesboro,Virginia,22980
2315 Ohio Way,,Green River,Wyoming,82935
605 Jewell St,,Danville,Illinois,61832
359 Clara And Clara Rd,,Greensburg,Louisiana,70441
2004 E Elizabeth Dr,,Sioux Falls,South Dakota,57103
4360 W Us 90 Hwy,,Uvalde,Texas,78801
24191 379th Rd,,Kiln,Mississippi,39556
345 South Ave,,Jackson,California,95642
324 N 1st Ave,,Fairview,Oklahoma,73737
1130 E 61st St,,Tacoma,Washington,98404
350 N State St #A A,,Concord,New Hampshire,03301
4105 Fm 163 Rd,,Cleveland,Texas,77327
29326 Dike Rd,,Rainier,Oregon,97048
16970 Tyler Rd,,Fiddletown,California,95629
2486 N Raleigh St,,Rocky Mount,North Carolina,27801
2400 S Cliff Ave #APT 4,,Sioux Falls,South Dakota,57105
19155 Vintage Trace Cir,,Fort Myers,Florida,33912
5342 James Pl NE,,Washington,District of Columbia,20019
200 S Maple 102,,Watertown,South Dakota,57201
409 N Ellsworth Rd #34,,Box Elder,South Dakota,57719
1509 S Miles Ave,,El Reno,Oklahoma,73036
303 Logan Dr,,Portsmouth,Virginia,23701
414 W Clark St,,Livingston,Montana,59047
230 Jefferson St,,American Falls,Idaho,83211
14 Smith St,,Riverside,Rhode Island,02915
48 S Carter Rd,,Smyrna,Delaware,19977
2035 Carabel Ave,,Lakewood,Ohio,44107
45757 Sd 46 Hwy,,Centerville,South Dakota,57014
1303 Spring Valley Dr,,Nacogdoches,Texas,75964
402 Horn Ave,,Moorhead,Minnesota,56560
632 Carson St,,Hazleton,Pennsylvania,18201
8601 New Hampton Rd NE,,Albuquerque,New Mexico,87111
32640 S 180th Rd,,Weleetka,Oklahoma,74880
101 Warrior Ct,,Mescalero,New Mexico,88340
42 3 Ponds Rd #3,,Wayland,Massachusetts,01778
14515 119th Way SE #A,,Yelm,Washington,98597
46 Rolling Rd,,Rehoboth Beach,Delaware,19971
932 Carlanna Lake Rd,,Ketchikan,Alaska,99901
9134 N 8 Mile Rd,,Lake City,Michigan,49651
434 Carol Dr,,Quincy,Illinois,62305
229 Serenity Ln,,Bedford,Wyoming,83112
312 S Tyler Ave,,Pierre,South Dakota,57501
84 Arrow Way,,Cranston,Rhode Island,02921
413 E Lowell Ave,,Cave Springs,Arkansas,72718
3459 White Goose Dr,,Cheboygan,Michigan,49721
19572 Rexham Ct,,Hilmar,California,95324
551 S Glennwood Cir,,Mesa,Arizona,85204
120 Harris Landing Rd,,Edenton,North Carolina,27932
19480 Augusta Ave NE,,Suquamish,Washington,98392
317 W South St,,Remington,Indiana,47977
117 Guthrie Cir #224,,Spiro,Oklahoma,74959
4 Spring Valley Ln,,Hockessin,Delaware,19707
121 E Park Sq #328,,Owatonna,Minnesota,55060
421 Guy St,,Jeannette,Pennsylvania,15644
1677 Charles Dr,,Manning,South Carolina,29102
125 Lexington Ave,,New York,New York,10016
298 Main St #APT 108,,Ogunquit,Maine,03907
2740 N Lake Shore Dr,,Harbor Springs,Michigan,49740
513 S Adams St,,Kimball,Nebraska,69145
118 W William St,,Michigan City,Indiana,46360
422 N Stafford St,,Yellow Springs,Ohio,45387
1416 18th Pl SE,,Washington,District of Columbia,20020
3350 N State Rd #32,,Kamas,Utah,84036
1931 E Alsop Ln,,Laramie,Wyoming,82072
2123 Pershing Ave,,Morton,Pennsylvania,19070
325 W Van Buren St,,Athena,Oregon,97813
5 N Main St,,Keedysville,Maryland,21756
106 Indian Summer Ln,,Williamsburg,Virginia,23188
1016 N 1300th W,,Pleasant Grove,Utah,84062
51 Cavalry Rd,,Westport,Connecticut,06880
261 Lucky Ln,,Alkol,West Virginia,25501
2461 E Kasben Rd,,Cedar,Michigan,49621
53 E Allen St,,Winooski,Vermont,05404
28 Griffith Ave,,Sheridan,Wyoming,82801
2978 Vine Rd,,Morristown,Tennessee,37813
13 Isabel Cir,,Montpelier,Vermont,05602
760 Jepson Ln,,Middletown,Rhode Island,02842
7136 Charleston Rd,,Leon,West Virginia,25123
100 W 10th St,,Dell Rapids,South Dakota,57022
612 W Flower Ave,,Mesa,Arizona,85210
330 Renova St,,Pittsburgh,Pennsylvania,15207
179 Mountain Rd,,Concord,New Hampshire,03301
1074 Grubby Rd,,Halifax,Virginia,24558
27 N 200 West St,,Loa,Utah,84747
12 Sunshine Trl,,Fairfield,Pennsylvania,17320
919 S Lyn Mar Dr,,Quincy,Illinois,62305
3852 Fee Fee Rd,,Bridgeton,Missouri,63044
45-301 Akimala Pl #1070,,Kaneohe,Hawaii,96744
507 Trail Dr,,Box Elder,South Dakota,57719
166 N Oak St,,West Salem,Wisconsin,54669
1019 W 3rd St,,Waterloo,Iowa,50701
18551 State 88 Hwy,,Jackson,California,95642
11883 New 68 Hwy,,Tellico Plains,Tennessee,37385
11860 Cynthia Dr,,Maryland Heights,Missouri,63043
1839 Arbor Way,,Turlock,California,95380
3390 E Lockett Rd,,Flagstaff,Arizona,86004
222 SW 4th St,,Newton,Kansas,67114
4 Lawndale Ct #APT B,,Henderson,Kentucky,42420
2354 Blue Spruce Dr,,Blanchard,Oklahoma,73010
1935 Adams St,,Quincy,Illinois,62301
1634 Indigo Dr,,Darlington,South Carolina,29540
644 G Ave,,Boulder City,Nevada,89005
15139 N State 28 Hwy,,Dardanelle,Arkansas,72834
123 Tower Rd,,West Warwick,Rhode Island,02893
8 Garden Center Dr #APT 308,,Greensburg,Pennsylvania,15601
324 108th St SW,,Everett,Washington,98204
901 S Dolphin Dr,,Gilbert,Arizona,85233
1204 E Race St,,Yakima,Washington,98901
244 N Dubois Rd,,Ariel,Washington,98603
24 Dawn Dr,,Concord,New Hampshire,03303
990 Honomu Ct,,Diamondhead,Mississippi,39525
385 Jefferson St,,American Falls,Idaho,83211
33 Dunn Rd,,Leoma,Tennessee,38468
2675 Bonniebrook Dr,,Maryland Heights,Missouri,63043
918 Pine Ridge Rd,,Rogersville,Tennessee,37857
2048 Bear Crk,,West Hamlin,West Virginia,25571
1740 Pine Valley Dr #APT 207,,Fort Myers,Florida,33907
372 Autumn Way,,American Falls,Idaho,83211
50 Windy Hill Ln,,Christiansburg,Virginia,24073
3428 Brinkley Rd,,Temple Hills,Maryland,20748
613 Fort Union Blvd,,Midvale,Utah,84047
14789 SW Anemone Ln,,Rose Hill,Kansas,67133
1597 S Moorland Rd,,New Berlin,Wisconsin,53151
3538 S Lake Leelanau Dr,,Lake Leelanau,Michigan,49653
89 Ohair Ln,,Livingston,Montana,59047
14532 N Creek Dr,,Bothell,Washington,98012
2219 Rocky Hock Rd,,Edenton,North Carolina,27932
305 Hallowell Rd,,Evansdale,Iowa,50707
5320 Blackburn St,,Fort Smith,Arkansas,72903
918 E 30th St,,Kearney,Nebraska,68847
2404 Plymouth St,,Blacksburg,Virginia,24060
2515 Webster St,,Liberty,Texas,77575
119 Fox Run,,Livingston,Montana,59047
24055 SE 262nd Pl,,Maple Valley,Washington,98038
119 Scenic Dr,,North Kingstown,Rhode Island,02852
97 Orchard Ave,,Emerson,New Jersey,07630
1136 Aster Ln,,Winneconne,Wisconsin,54986
8215 Buck Skin Rd,,Wilson,Oklahoma,73463
1917 6th Ave,,Altoona,Pennsylvania,16602
1501 Birchard Ave,,Fremont,Ohio,43420
41 Cambra Rd,,Waldwick,New Jersey,07463
14272 Copper Oaks Dr,,Herriman,Utah,84096
24220 SE 263rd Pl,,Maple Valley,Washington,98038
5330 Denver St SE,,Turner,Oregon,97392
708 3rd St,,Henderson,Kentucky,42420
12 Tulane Ave,,Pocatello,Idaho,83201
11 Blue Hills Rd,,Monroe,Connecticut,06468
6742 Glenella Dr,,Independence,Ohio,44131
3469 Cactus Valley Ln,,Laughlin,Nevada,89029
705 Livesey Ln,,Eastsound,Washington,98245
21 Anne Ct,,Tijeras,New Mexico,87059
980 Cranston St,,Cranston,Rhode Island,02920
8 Franklin St,,Randolph,Vermont,05060
107 NE 20th St,,Grand Rapids,Minnesota,55744
912 Fitzwatertown Rd,,Glenside,Pennsylvania,19038
587 Sioux Trl,,Fort Myers Beach,Florida,33931
10472 Center St,,Boulder Junction,Wisconsin,54512
6 Brooklodge Ln,,Middletown,Maryland,21769
1002 NW 194th St,,Ridgefield,Washington,98642
1046 Morningside Ln,,Fort Lee,New Jersey,07024
3404 W Chestnut St,,Rogers,Arkansas,72756
259 Marylee Rd,,Jasper,Alabama,35504
10536 E Valley View Dr,,Gold Canyon,Arizona,85118
2689 Summerville Rd,,Jasper,Alabama,35504
3073 S Indiana St,,Denver,Colorado,80228
7205 Gravois Ave,,Saint Louis,Missouri,63116
10329 Wishing Stone Ct,,Bonita Springs,Florida,34135
529 W Berwick St,,Easton,Pennsylvania,18042
235 North Rd,,Hampden,Maine,04444
1314 Apache St,,Bismarck,North Dakota,58501
575 E Torrey St #APT 211,,New Braunfels,Texas,78130
542 Red Top Rd,,Indian Mound,Tennessee,37079
3122 Sherman Dr,,Saint Ann,Missouri,63074
106 2nd Ave,,Van Horne,Iowa,52346
116-1/2 W Letchworth St,,Rantoul,Illinois,61866
680 Bates Hollow Rd,,Reynolds Station,Kentucky,42368
1101 Paisley St,,Sturgis,South Dakota,57785
423 Wood St,,Muncy,Pennsylvania,17756
7505 NE 155th St,,Kenmore,Washington,98028
2 Catherine St,,Lyons,New York,14489
120 Basil St,,Marietta,Pennsylvania,17547
135 Velvet Antler Dr,,Clayton,Delaware,19938
314 Opal Rd,,Denmark,South Carolina,29042
218 2nd St #APT B,,Fulton,Kentucky,42041
103 Island View Ter #103,,Branford,Connecticut,06405
201 Hartman Ave,,Waterloo,Iowa,50701
2703 S Topeka St #304,,Wichita,Kansas,67216
203 Loudon Rd,,Concord,New Hampshire,03301
11275 Arcadia Ct,,Guthrie,Oklahoma,73044
2461 Valley Rd,,East Troy,Wisconsin,53120
1019 Madison Ave,,Piqua,Ohio,45356
104 Condensary Ln,,Elkland,Pennsylvania,16920
2025 Red Bluff Church Rd,,Greensburg,Louisiana,70441
107 Nixon Rd,,Edenton,North Carolina,27932
4968 Flamingo Dr,,Saint James City,Florida,33956
9158 St Joe River Rd,,Saint Maries,Idaho,83861
13880 Meacham Rd,,Prairie Grove,Arkansas,72753
302 Woodland Way,,Romney,West Virginia,26757
57 East St,,Orleans,Vermont,05860
1739 Foxon Rd #M5,,North Branford,Connecticut,06471
2150 Center Ave,,Fort Lee,New Jersey,07024
303 Andover Rd,,Hoyt Lakes,Minnesota,55750
12761 Stringfellow Rd,,Bokeelia,Florida,33922
117 Smelt St,,Gettysburg,South Dakota,57442
429 W Broadway St,,Dickinson,North Dakota,58601
223 S Wood Ave,,Hominy,Oklahoma,74035
22629 36th St NE,,Granite Falls,Washington,98252
5067 Crescent Ridge Dr,,Kiln,Mississippi,39556
184 Kent Rd,,Greensburg,Louisiana,70441
1326 Hazelwood St,,Boulder City,Nevada,89005
538 Elkins Rd,,Huntsville,Texas,77340
1847 East Rd,,East Ryegate,Vermont,05042
30 Cove St,,Portsmouth,Rhode Island,02871
7 Darbrook Rd,,Westport,Connecticut,06880
37509 Kaitlyn Dr #12,,Rehoboth Beach,Delaware,19971
7206 Ga 102 Hwy W,,Mitchell,Georgia,30820
101 King Rd,,Ruidoso,New Mexico,88345
819 Benjamin Pl,,Kamas,Utah,84036
6 Camillia Ct,,Gillette,Wyoming,82716
4041 Gulf Shore Blvd N #APT 1201,,Naples,Florida,34103
13785 Heath Brothers Dr,,Glade Spring,Virginia,24340
911 44th Rte,,Brownsville,Vermont,05037
555 Cassidy Rd,,Thomasville,Georgia,31792
300 8th St W,,Park Rapids,Minnesota,56470
4 Shasta Ct #A,,Cedar Crest,New Mexico,87008
13609 Crossburn Ave,,Cleveland,Ohio,44135
14279 Brookneal Hwy,,Gladys,Virginia,24554
5068 Oakdale Rd,,Wilson,North Carolina,27893
7801 12th St SE,,Everett,Washington,98205
44630 306th St,,Mission Hill,South Dakota,57046
23485 270th St,,Cornell,Wisconsin,54732
715 Reservoir Rd,,Pascoag,Rhode Island,02859
30201 Royalview Dr,,Eastlake,Ohio,44095
307 W 21st St,,New York,New York,10011
50 Laddins Rock Rd,,Old Greenwich,Connecticut,06870
74596 Diamondhead Dr N,,Diamondhead,Mississippi,39525
2068 Bungalow Village Ln,,Sheridan,Wyoming,82801
10075 Thorne Bottom Rd,,Wardensville,West Virginia,26851
33839 Acme Rd,,Macomb,Oklahoma,74852
1850 Mcmillan Rd,,Ochlocknee,Georgia,31773
100 Harbor View Dr,,Boulder City,Nevada,89005
556 Hillcrest Ter,,Creve Coeur,Illinois,61610
423 N Market St,,Monon,Indiana,47959
711 Marion St,,Kimball,Nebraska,69145
1462 Center St,,Manteca,California,95337
1109 Old Main St,,Newton,Kansas,67114
84 S Gladd Rd,,Fort Gibson,Oklahoma,74434
3 Gwynn Ln,,Lebanon,Tennessee,37087
6117 Russell Ct,,Golden,Colorado,80403
49 Center St,,Pownal,Vermont,05261
2115 E 34th St,,Kearney,Nebraska,68847
55 Fenwood Ave,,Pawtucket,Rhode Island,02860
46-090 Konohiki St #3421,,Kaneohe,Hawaii,96744
25965 Pebblecreek Dr,,Bonita Springs,Florida,34135
335 N Waters St,,Perryville,Missouri,63775
5 Russell St,,Carbondale,Pennsylvania,18407
16460 3rd Hwy,,Webster,Texas,77598
2940 Weatherhead Hollow Rd #R,,Brattleboro,Vermont,05301
65 Billman Ln,,Livingston,Montana,59047
173 E Adams Ave,,Sisters,Oregon,97759
220 Outback Rd,,Lobelville,Tennessee,37097
49 Atlantic Ter #UNT 3,,Lynn,Massachusetts,01902
783 Cantom Ave,,Fond Du Lac,Wisconsin,54935
1200 Industrial Rd #54,,Boulder City,Nevada,89005
474 Ocean Ave,,Wells,Maine,04090
2104 Pleasant Dr,,Ennis,Texas,75119
154 Amherst Rd,,Belchertown,Massachusetts,01007
111 Parkhurst Hall 6003,,Hanover,New Hampshire,03755
1220 37th Ave,,Gulfport,Mississippi,39501
814 Turkey Dr,,Adel,Georgia,31620
2125 Yale St,,Houston,Texas,77008
297 Water St,,Portsmouth,Rhode Island,02871
4561 480th Rd,,Hay Springs,Nebraska,69347
6203 Fm 841,,Lufkin,Texas,75901
400 W 43rd St,,New York,New York,10036
117 Menhall Dr,,Edgerton,Wisconsin,53534
3156 Oak St,,Longview,Washington,98632
38 Winnipeg Rd,,Kearney,Nebraska,68847
265 Glover Rd,,Barton,Vermont,05822
70 Susquehanna Ave,,Lock Haven,Pennsylvania,17745
10 Beverly Pl,,Edgewater,New Jersey,07020
211 Jackson Cir,,Tullahoma,Tennessee,37388
1710 Mountain View Dr,,Lyman,Wyoming,82937
887 State 95 Rte W,,New Bloomington,Ohio,43341
1220 Terrace Lake Rd,,Ronan,Montana,59864
13 Winter Ter,,Mahwah,New Jersey,07430
226 Pleasant St #1,,Pawtucket,Rhode Island,02860
7610 Trail Run Rd,,Falls Church,Virginia,22042
506 Green Teal Pl,,Huron,Ohio,44839
3709 S Czech Hall Rd,,Yukon,Oklahoma,73099
2244 Pinecrest St,,Harbor Springs,Michigan,49740
1212 Gimlet Creek Rd,,Pulaski,Tennessee,38478
347 Arctic Rd NW,,Puposky,Minnesota,56667
6400 Bridge Bay,,Rogers,Arkansas,72758
3985 Remington St,,East Helena,Montana,59635
3103 Bridges St #53,,Morehead City,North Carolina,28557
75 Kaye Vue Dr,,Hamden,Connecticut,06514
18961 Golden Way,,Plymouth,California,95669
12304 Skylark Ln,,Bowie,Maryland,20715
2021 Melrose Dr,,Michigan City,Indiana,46360
6547 Caesar Necaise Rd,,Perkinston,Mississippi,39573
4726 Cameron Ave,,Hammond,Indiana,46327
5964 Carson Ln,,Coggon,Iowa,52218
76 Lincoln St,,Essex Junction,Vermont,05452
408 Center Point Rd,,Wilburton,Oklahoma,74578
580 Swingley Rd,,Livingston,Montana,59047
1640 Fairview Pl,,Cottage Grove,Oregon,97424
2503 Illumination Bay Pl,,Laughlin,Nevada,89029
7235 Harrison Ave,,Hammond,Indiana,46324
320 W 53rd St,,New York,New York,10019
1150 Firethorn Ct,,Crozet,Virginia,22932
936 Hillcroft Ter,,Cave Springs,Arkansas,72718
1017 W Clay Dr,,Lebanon,Tennessee,37087
15 Navaho Trl,,Georgetown,South Carolina,29440
1195 Ohio Ave NE,,Bandon,Oregon,97411
19392 Illinois 127 Rte,,Raymond,Illinois,62560
352 Key Rd,,Edgefield,South Carolina,29824
13 Winter St,,Cumberland,Rhode Island,02864
5420 Ellie Mae Dr,,Guthrie,Oklahoma,73044
100 Pratt Hwy,,Birmingham,Alabama,35214
701 S Ithaca Ave,,Russellville,Arkansas,72801
1306 N Gale Mountain Rd,,Pocatello,Idaho,83204
7428 Turnberry Dr,,Diamondhead,Mississippi,39525
306 Sayles Ave,,Pascoag,Rhode Island,02859
1268 Edwin And Myrtle Rd,,Greensburg,Louisiana,70441
10 Bass Ln,,Winterport,Maine,04496
15 Saint Nicholas Ave,,New York,New York,10026
311 Pine St,,Punxsutawney,Pennsylvania,15767
2201 Georgetown Rd,,Middletown,Pennsylvania,17057
2653 W 82nd Way #UNT D,,Westminster,Colorado,80031
26 Birch Rd,,Darien,Connecticut,06820
101 Cross Creek Ct,,Central,South Carolina,29630
6714 Kristins Cove Ln,,Canal Winchester,Ohio,43110
173 Kent Rd,,Greensburg,Louisiana,70441
1145 Laclede St,,Sheridan,Wyoming,82801
125 County Ii Rd,,Fremont,Wisconsin,54940
1316 Atlantic Dr,,Waukesha,Wisconsin,53186
1104 W Laguna Azul Ave,,Mesa,Arizona,85210
16860 S 13th St,,Galesville,Wisconsin,54630
822 Lebanon Rd,,Winterport,Maine,04496
7520 Chad Ave,,Addis,Louisiana,70710
599 S Middlebrook Rd,,Vergennes,Vermont,05491
823 S 36th St,,Quincy,Illinois,62301
124 Melbourne Ln,,Mechanicsburg,Pennsylvania,17055
107 17th St SE,,Auburn,Washington,98002
2209 6th Ave,,Kearney,Nebraska,68845
1 Rodney Ave,,Rehoboth Beach,Delaware,19971
30 Spruce Grove Rd,,East Helena,Montana,59635
9814 234th St SW,,Edmonds,Washington,98020
405 E 5th Ave #203A,,Lennox,South Dakota,57039
780 NW Juniper St,,Issaquah,Washington,98027
80 Kinnear Spur,,Kinnear,Wyoming,82516
2083 E Cherry Ln,,Layton,Utah,84040
